{
    "links": {
        "self": "http://www.neowsapp.com/rest/v1/neo/54087758?api_key=iIulBulltgU6a56xZRHN4H3l9WmuAYTsLGpBGhQ2"
    },
    "id": "54087758",
    "neo_reference_id": "54087758",
    "name": "(2020 VR3)",
    "designation": "2020 VR3",
    "nasa_jpl_url": "http://ssd.jpl.nasa.gov/sbdb.cgi?sstr=54087758",
    "absolute_magnitude_h": 24.675,
    "estimated_diameter": {
        "kilometers": {
            "estimated_diameter_min": 0.0308713042,
            "estimated_diameter_max": 0.0690303346
        },
        "meters": {
            "estimated_diameter_min": 30.8713041559,
            "estimated_diameter_max": 69.0303346466
        },
        "miles": {
            "estimated_diameter_min": 0.0191825331,
            "estimated_diameter_max": 0.0428934481
        },
        "feet": {
            "estimated_diameter_min": 101.2838095268,
            "estimated_diameter_max": 226.477483122
        }
    },
    "is_potentially_hazardous_asteroid": false,
    "close_approach_data": [
        {
            "close_approach_date": "2020-10-25",
            "close_approach_date_full": "2020-Oct-25 18:52",
            "epoch_date_close_approach": 1603651920000,
            "relative_velocity": {
                "kilometers_per_second": "7.3151002052",
                "kilometers_per_hour": "26334.3607387556",
                "miles_per_hour": "16363.147649034"
            },
            "miss_distance": {
                "astronomical": "0.0376986445",
                "lunar": "14.6647727105",
                "kilometers": "5639636.919087215",
                "miles": "3504307.884604967"
            },
            "orbiting_body": "Earth"
        },
        {
            "close_approach_date": "2138-12-06",
            "close_approach_date_full": "2138-Dec-06 15:27",
            "epoch_date_close_approach": 5330935620000,
            "relative_velocity": {
                "kilometers_per_second": "14.7969940455",
                "kilometers_per_hour": "53269.1785639757",
                "miles_per_hour": "33099.3959804881"
            },
            "miss_distance": {
                "astronomical": "0.2426257207",
                "lunar": "94.3814053523",
                "kilometers": "36296291.023934909",
                "miles": "22553469.4239993842"
            },
            "orbiting_body": "Earth"
        },
        {
            "close_approach_date": "2149-12-21",
            "close_approach_date_full": "2149-Dec-21 06:31",
            "epoch_date_close_approach": 5679354660000,
            "relative_velocity": {
                "kilometers_per_second": "22.3526043164",
                "kilometers_per_hour": "80469.3755389694",
                "miles_per_hour": "50000.5405953113"
            },
            "miss_distance": {
                "astronomical": "0.4986674516",
                "lunar": "193.9816386724",
                "kilometers": "74599588.597688092",
                "miles": "46354034.8894439896"
            },
            "orbiting_body": "Earth"
        }
    ],
    "orbital_data": {
        "orbit_id": "5",
        "orbit_determination_date": "2020-11-24 05:23:39",
        "first_observation_date": "2020-11-11",
        "last_observation_date": "2020-11-23",
        "data_arc_in_days": 12,
        "observations_used": 28,
        "orbit_uncertainty": "8",
        "minimum_orbit_intersection": ".0226421",
        "jupiter_tisserand_invariant": "3.714",
        "epoch_osculation": "2459168.5",
        "eccentricity": ".4935956035790566",
        "semi_major_axis": "1.962392261386318",
        "inclination": "5.75313309052803",
        "ascending_node_longitude": "232.9529739318839",
        "orbital_period": "1004.100447749794",
        "perihelion_distance": ".9937640686684688",
        "perihelion_argument": "154.4186388699024",
        "aphelion_distance": "2.931020454104167",
        "perihelion_time": "2459143.269283840482",
        "mean_anomaly": "9.045965309329127",
        "mean_motion": ".3585298670135703",
        "equinox": "J2000",
        "orbit_class": {
            "orbit_class_type": "APO",
            "orbit_class_description": "Near-Earth asteroid orbits which cross the Earth’s orbit similar to that of 1862 Apollo",
            "orbit_class_range": "a (semi-major axis) > 1.0 AU; q (perihelion) < 1.017 AU"
        }
    },
    "is_sentry_object": false
}